     2.11           N: GPS NAV DATA                         RINEX VERSION / TYPE
teqc  2019Feb25                         20221121 12:23:12UTCPGM / RUN BY / DATE
OSX ker:10.11.6|Core i5|gcc 4.3 -m64|OSX ker:10.10+|=+      COMMENT
    7.4506D-09  2.2352D-08 -5.9605D-08 -1.1921D-07          ION ALPHA
    8.6016D+04  8.1920D+04 -1.3107D+05 -5.2429D+05          ION BETA
   -2.793967723846D-09-7.993605777301D-15   589824     1531 DELTA-UTC: A0,A1,T,W
                                                            END OF HEADER
31 09  5 15  0  0  0.0-6.023934110999D-05-9.094947017729D-13 0.000000000000D+00
    7.600000000000D+01-4.859375000000D+01 4.483758195098D-09-2.071318841944D+00
   -2.356246113777D-06 7.071861880831D-03 4.174187779427D-06 5.153710786819D+03
    4.320000000000D+05-3.166496753693D-08 2.992919972822D+00 2.123415470123D-07
    9.728790150132D-01 3.064375000000D+02-1.143499277872D+00-8.050692486514D-09
   -3.000124967247D-11 1.000000000000D+00 1.531000000000D+03 0.000000000000D+00
    2.800000000000D+00 0.000000000000D+00-1.303851604462D-08 7.600000000000D+01
    4.248180000000D+05 4.000000000000D+00
30 09  5 15  0  0  0.0 1.463051885366D-04 2.728484105319D-12 0.000000000000D+00
    8.000000000000D+01-8.243750000000D+01 4.610192033003D-09 1.819211784787D+00
   -4.529953002930D-06 1.135475619230D-02 8.536502718925D-06 5.153604480743D+03
    4.320000000000D+05 1.490116119385D-08-2.284097685745D+00-2.738088369370D-07
    9.518982798699D-01 2.089375000000D+02 1.416298631003D+00-7.965688945775D-09
    4.643050544549D-11 1.000000000000D+00 1.531000000000D+03 0.000000000000D+00
    2.000000000000D+00 0.000000000000D+00-8.381903171539D-09 8.000000000000D+01
    4.248180000000D+05 4.000000000000D+00
20 09  5 15  0  0  0.0 8.262926712632D-05-1.023181539495D-12 0.000000000000D+00
    7.400000000000D+01 4.965625000000D+01 4.640550440410D-09 2.267115219820D+00
    2.617016434670D-06 3.991289646365D-03 8.381903171539D-06 5.153614902496D+03
    4.320000000000D+05 7.823109626770D-08 8.758879866961D-01-1.303851604462D-08
    9.423351551274D-01 2.081562500000D+02 1.356484976827D+00-8.035334703944D-09
   -6.750281176306D-11 1.000000000000D+00 1.531000000000D+03 0.000000000000D+00
    2.000000000000D+00 0.000000000000D+00-6.519258022308D-09 7.400000000000D+01
    4.248180000000D+05 4.000000000000D+00
23 09  5 15  0  0  0.0 3.900057636201D-04 1.136868377216D-13 0.000000000000D+00
    3.300000000000D+01 4.946875000000D+01 4.346252467432D-09-3.254988059661D-01
    2.600252628326D-06 6.063766661100D-03 4.583969712257D-06 5.153614391327D+03
    4.320000000000D+05 5.029141902924D-08 1.953095992002D+00-3.352761268616D-08
    9.702404901137D-01 2.930312500000D+02 2.878187864854D+00-8.167483065596D-09
    2.221521106700D-10 1.000000000000D+00 1.531000000000D+03 0.000000000000D+00
    2.000000000000D+00 0.000000000000D+00-2.002343535423D-08 3.300000000000D+01
    4.248180000000D+05 4.000000000000D+00
16 09  5 15  0  0  0.0 5.100155249238D-05-3.296918293927D-12 0.000000000000D+00
    5.400000000000D+01-6.575000000000D+01 4.385182660460D-09 1.941463309237D+00
   -3.060325980186D-06 5.336634465493D-03 8.203089237213D-06 5.153546670914D+03
    4.320000000000D+05 1.061707735062D-07-2.219609072039D+00 6.519258022308D-08
    9.682712385322D-01 2.244375000000D+02-3.681011075172D-01-7.875328039024D-09
   -1.535778257043D-11 1.000000000000D+00 1.531000000000D+03 0.000000000000D+00
    2.000000000000D+00 0.000000000000D+00-9.778887033463D-09 5.400000000000D+01
    4.248180000000D+05 4.000000000000D+00
 2 09  5 15  0  0  0.0 1.542181707919D-04 5.684341886081D-13 0.000000000000D+00
    4.900000000000D+01 2.937500000000D+00 5.105212652599D-09-1.884429689489D-01
    3.539025783539D-08 9.055493748747D-03 6.934627890587D-06 5.153646966934D+03
    4.320000000000D+05 2.030283212662D-07-1.599210593426D-01-1.192092895508D-07
    9.416632865928D-01 2.385625000000D+02 2.810488289330D+00-8.336775831605D-09
   -2.996553389905D-10 1.000000000000D+00 1.531000000000D+03 0.000000000000D+00
    2.000000000000D+00 0.000000000000D+00-1.722946763039D-08 4.900000000000D+01
    4.248180000000D+05 4.000000000000D+00
13 09  5 15  0  0  0.0 2.970946952701D-04 9.094947017729D-13 0.000000000000D+00
    3.200000000000D+01 5.093750000000D+01 3.829445226050D-09 4.477012685320D-01
    2.490356564522D-06 4.124602535740D-03 4.792585968971D-06 5.153711624146D+03
    4.320000000000D+05-2.980232238770D-08 2.004836643939D+00 3.911554813385D-08
    9.947367344349D-01 3.025312500000D+02 1.560466539352D+00-7.921401386735D-09
    1.821504444400D-10 1.000000000000D+00 1.531000000000D+03 0.000000000000D+00
    2.000000000000D+00 0.000000000000D+00-1.117587089539D-08 3.200000000000D+01
    4.248180000000D+05 4.000000000000D+00
24 09  5 15  0  0  0.0 1.889327540994D-04 2.955857780762D-12 0.000000000000D+00
    5.600000000000D+01 7.625000000000D+00 4.649836541499D-09 2.045390645130D+00
    4.395842552185D-07 6.722793914378D-03 7.310882210732D-06 5.153672155380D+03
    4.320000000000D+05-5.215406417847D-08-9.640592837960D-02 1.154839992523D-07
    9.510749320199D-01 2.339375000000D+02-6.469651938172D-01-7.879971089568D-09
   -3.157274370293D-10 1.000000000000D+00 1.531000000000D+03 0.000000000000D+00
    2.000000000000D+00 0.000000000000D+00-1.396983861923D-09 5.600000000000D+01
    4.263060000000D+05 4.000000000000D+00
25 09  5 15  0  0  0.0 4.124864935875D-04 1.966782292584D-11 0.000000000000D+00
    9.400000000000D+01-4.162500000000D+01 4.469829043464D-09 2.541849440106D+00
   -2.181157469749D-06 1.145504065789D-02 3.676861524582D-06 5.153655012131D+03
    4.320000000000D+05 2.644956111908D-07 2.900618173338D+00-1.676380634308D-08
    9.697315292106D-01 3.117187500000D+02-1.207848520836D+00-8.018548290436D-09
   -9.500395729616D-11 1.000000000000D+00 1.531000000000D+03 0.000000000000D+00
    2.800000000000D+00 0.000000000000D+00-7.450580596924D-09 9.400000000000D+01
    4.277760000000D+05 4.000000000000D+00
 6 09  5 15  0  0  0.0 1.228693872690D-04 1.534772309242D-11 0.000000000000D+00
    4.900000000000D+01-8.750000000000D+00 5.209145553250D-09 1.933422837907D+00
   -5.625188350678D-07 5.980518064462D-03 7.243826985359D-06 5.153702749252D+03
    4.320000000000D+05 1.080334186554D-07-1.240023341275D+00-7.450580596924D-08
    9.334042084890D-01 2.183125000000D+02-1.375191627760D+00-8.208913362763D-09
    7.000291590243D-11 1.000000000000D+00 1.531000000000D+03 0.000000000000D+00
    2.000000000000D+00 0.000000000000D+00-4.656612873077D-09 4.900000000000D+01
    4.290660000000D+05 4.000000000000D+00
21 09  5 15  0  0  0.0 1.396099105477D-05-2.046363078989D-12 0.000000000000D+00
    7.200000000000D+01 6.406250000000D+00 5.040209944975D-09-2.873546227672D+00
    2.011656761169D-07 1.520783000160D-02 7.359310984612D-06 5.153613611221D+03
    4.320000000000D+05-6.146728992462D-08-1.283063448857D-01-1.788139343262D-07
    9.344237614489D-01 2.241562500000D+02-2.607753805950D+00-8.018905448170D-09
   -1.671498196038D-10 1.000000000000D+00 1.531000000000D+03 0.000000000000D+00
    2.000000000000D+00 0.000000000000D+00-1.210719347000D-08 7.200000000000D+01
    4.292460000000D+05 4.000000000000D+00
10 09  5 15  0  0  0.0-1.600151881576D-05-5.684341886081D-13 0.000000000000D+00
    4.900000000000D+01 5.906250000000D+01 4.322680056975D-09 7.277103837384D-01
    3.116205334663D-06 8.607393479906D-03 8.691102266312D-06 5.153602569580D+03
    4.320000000000D+05-8.568167686462D-08 9.240884280837D-01 1.061707735062D-07
    9.586163712711D-01 2.117500000000D+02 6.237422836326D-01-7.964260314838D-09
   -1.842933908452D-10 1.000000000000D+00 1.531000000000D+03 0.000000000000D+00
    2.800000000000D+00 0.000000000000D+00-2.793967723846D-09 4.900000000000D+01
    4.299360000000D+05 4.000000000000D+00
 7 09  5 15  0  0  0.0 1.884624361992D-05-6.821210263297D-13 0.000000000000D+00
    8.300000000000D+01-5.246875000000D+01 4.573404786381D-09-1.904624824457D+00
   -2.764165401459D-06 2.538173692301D-03 4.304572939873D-06 5.153671926498D+03
    4.320000000000D+05-1.676380634308D-08 2.995099204350D+00-1.117587089539D-07
    9.674998915682D-01 3.025937500000D+02 2.880142566253D+00-8.183198005901D-09
   -3.321566928024D-11 1.000000000000D+00 1.531000000000D+03 0.000000000000D+00
    2.000000000000D+00 0.000000000000D+00-1.071020960808D-08 8.300000000000D+01
    4.306860000000D+05 4.000000000000D+00
 3 09  5 15  0  0  0.0 3.930944949389D-04 5.229594535194D-12 0.000000000000D+00
    1.660000000000D+02-3.281250000000D+00 5.472727961087D-09-5.377226947200D-01
   -1.396983861923D-07 1.185074890964D-02 7.448717951775D-06 5.153750844955D+03
    4.320000000000D+05-5.587935447693D-09-1.307535588677D+00 1.788139343262D-07
    9.259076544903D-01 2.151250000000D+02 9.000652110088D-01-8.592857927024D-09
    9.178953768839D-11 1.000000000000D+00 1.531000000000D+03 0.000000000000D+00
    2.000000000000D+00 0.000000000000D+00-4.190951585770D-09 1.660000000000D+02
    4.307760000000D+05 4.000000000000D+00
